NORAD_CAT_ID,OBJECT_NAME,OBJECT_TYPE,EPOCH,MEAN_MOTION,ECCENTRICITY,INCLINATION,RA_OF_ASC_NODE,ARG_OF_PERICENTER,MEAN_ANOMALY,BSTAR,MEAN_MOTION_DOT,MEAN_MOTION_DDOT,TLE_LINE0,TLE_LINE1,TLE_LINE2,SEMIMAJOR_AXIS,PERIOD,APOGEE,PERIGEE,DECAYED
53634.0,STARLINK-4592,PAYLOAD,2023-03-09 19:03:47,15.0884369,0.0001144,53.219,103.6879,108.4534,251.6583,9.8998e-06,-1.3e-06,0.0,0 STARLINK-4592,1 53634U 22104AY  23068.79430553 -.00000130  00000-0  98998-5 0  9998,2 53634  53.2190 103.6879 0001144 108.4534 251.6583 15.08843690 30784,6917.869,95.437,540.526,538.943,0.0
53634.0,STARLINK-4592,PAYLOAD,2023-03-10 09:22:15,15.08876933,0.0001674,53.2185,101.016,116.2673,243.8491,-0.00037614,-6.276e-05,0.0,0 STARLINK-4592,1 53634U 22104AY  23069.39046104 -.00006276  00000-0 -37614-3 0  9994,2 53634  53.2185 101.0160 0001674 116.2673 243.8491 15.08876933 29855,6917.768,95.435,540.791,538.474,0.0
53634.0,STARLINK-4592,PAYLOAD,2023-03-10 18:54:34,15.08846931,9.43e-05,53.2189,99.2276,92.4008,267.7092,1.0692e-05,-1.18e-06,0.0,0 STARLINK-4592,1 53634U 22104AY  23069.78790274 -.00000118  00000-0  10692-4 0  9997,2 53634  53.2189  99.2276 0000943  92.4008 267.7092 15.08846931 29914,6917.859,95.437,540.377,539.072,0.0
53634.0,STARLINK-4592,PAYLOAD,2023-03-11 04:26:55,15.08830218,0.0001638,53.2177,97.4455,85.8912,274.2267,-5.3004e-05,-1.131e-05,0.0,0 STARLINK-4592,1 53634U 22104AY  23070.18535880 -.00001131  00000-0 -53004-4 0  9994,2 53634  53.2177  97.4455 0001638  85.8912 274.2267 15.08830218 29976,6917.91,95.438,540.908,538.642,0.0
53634.0,STARLINK-4592,PAYLOAD,2023-03-11 10:48:27,15.08837007,0.0001268,53.2185,96.2545,88.3062,271.8075,-0.00016786,-2.958e-05,0.0,0 STARLINK-4592,1 53634U 22104AY  23070.45031977 -.00002958  00000-0 -16786-3 0  9995,2 53634  53.2185  96.2545 0001268  88.3062 271.8075 15.08837007 31038,6917.89,95.438,540.632,538.877,0.0
53634.0,STARLINK-4592,PAYLOAD,2023-03-12 12:14:36,15.08848459,0.0001301,53.2185,91.4966,89.8828,270.2313,-3.8625e-05,-9.03e-06,0.0,0 STARLINK-4592,1 53634U 22104AY  23071.51015000 -.00000903  00000-0 -38625-4 0  9997,2 53634  53.2185  91.4966 0001301  89.8828 270.2313 15.08848459 30171,6917.855,95.437,540.62,538.82,0.0
53634.0,STARLINK-4592,PAYLOAD,2023-03-13 12:05:23,15.08845031,0.0001044,53.2191,87.0354,101.8377,258.2732,7.2158e-05,8.61e-06,0.0,0 STARLINK-4592,1 53634U 22104AY  23072.50374547  .00000861  00000-0  72158-4 0  9991,2 53634  53.2191  87.0354 0001044 101.8377 258.2732 15.08845031 31342,6917.865,95.437,540.452,539.008,0.0
53634.0,STARLINK-4592,PAYLOAD,2023-03-14 05:34:39,15.08834562,0.0001302,53.2193,83.7631,98.6059,261.5081,-0.00010418,-1.945e-05,0.0,0 STARLINK-4592,1 53634U 22104AY  23073.23240258 -.00001945  00000-0 -10418-3 0  9999,2 53634  53.2193  83.7631 0001302  98.6059 261.5081 15.08834562 30432,6917.897,95.438,540.663,538.861,0.0
53634.0,STARLINK-4592,PAYLOAD,2023-03-14 07:10:02,15.08837192,0.0001294,53.2197,83.4654,104.2515,255.8621,-8.5545e-05,-1.649e-05,0.0,0 STARLINK-4592,1 53634U 22104AY  23073.29864035 -.00001649  00000-0 -85545-4 0  9995,2 53634  53.2197  83.4654 0001294 104.2515 255.8621 15.08837192 31461,6917.889,95.438,540.649,538.859,0.0
53634.0,STARLINK-4592,PAYLOAD,2023-03-15 03:50:02,15.08858015,0.0001311,53.2201,79.6034,84.3172,275.7969,-6.4345e-05,-1.312e-05,0.0,0 STARLINK-4592,1 53634U 22104AY  23074.15974768 -.00001312  00000-0 -64345-4 0  9998,2 53634  53.2201  79.6034 0001311  84.3172 275.7969 15.08858015 30577,6917.825,95.436,540.597,538.783,0.0
53634.0,STARLINK-4592,PAYLOAD,2023-03-15 11:46:56,15.08868771,0.0001361,53.2196,78.1134,100.084,260.0306,4.2941e-05,3.96e-06,0.0,0 STARLINK-4592,1 53634U 22104AY  23074.49093150  .00000396  00000-0  42941-4 0  9999,2 53634  53.2196  78.1134 0001361 100.0840 260.0306 15.08868771 30626,6917.792,95.436,540.599,538.716,0.0
53634.0,STARLINK-4592,PAYLOAD,2023-03-16 05:16:13,15.08830567,0.0001353,53.219,74.845,86.0719,274.0428,-8.6749e-06,-4.26e-06,0.0,0 STARLINK-4592,1 53634U 22104AY  23075.21959975 -.00000426  00000-0 -86749-5 0  9997,2 53634  53.2190  74.8450 0001353  86.0719 274.0428 15.08830567 30737,6917.909,95.438,540.71,538.838,0.0
53634.0,STARLINK-4592,PAYLOAD,2023-03-16 10:02:22,15.0884185,0.0001242,53.22,73.9533,84.35,275.7634,3.834e-05,3.22e-06,0.0,0 STARLINK-4592,1 53634U 22104AY  23075.41831057  .00000322  00000-0  38340-4 0  9995,2 53634  53.2200  73.9533 0001242  84.3500 275.7634 15.08841850 30764,6917.875,95.437,540.599,538.881,0.0
53634.0,STARLINK-4592,PAYLOAD,2023-03-16 16:23:55,15.08832218,0.000156,53.2199,72.7619,85.401,274.716,-4.6597e-05,-1.029e-05,0.0,0 STARLINK-4592,1 53634U 22104AY  23075.68327980 -.00001029  00000-0 -46597-4 0  9999,2 53634  53.2199  72.7619 0001560  85.4010 274.7160 15.08832218 30800,6917.904,95.438,540.848,538.69,0.0
53634.0,STARLINK-4592,PAYLOAD,2023-03-17 09:53:10,15.0883857,0.000145,53.2202,69.4935,93.6564,266.4594,-0.00011839,-2.172e-05,0.0,0 STARLINK-4592,1 53634U 22104AY  23076.41192165 -.00002172  00000-0 -11839-3 0  9996,2 53634  53.2202  69.4935 0001450  93.6564 266.4594 15.08838570 31933,6917.885,95.438,540.753,538.747,0.0
53634.0,STARLINK-4592,PAYLOAD,2023-03-17 16:14:42,15.0884248,0.0001434,53.2202,68.304,84.5647,275.5509,-0.000187,-3.263e-05,0.0,0 STARLINK-4592,1 53634U 22104AY  23076.67688097 -.00003263  00000-0 -18700-3 0  9994,2 53634  53.2202  68.3040 0001434  84.5647 275.5509 15.08842480 31977,6917.873,95.437,540.73,538.746,0.0
53634.0,STARLINK-4592,PAYLOAD,2023-03-18 11:19:19,15.0884935,0.0001271,53.2195,64.7347,92.1398,267.9739,0.0001111,1.481e-05,0.0,0 STARLINK-4592,1 53634U 22104AY  23077.47174814  .00001481  00000-0  11110-3 0  9996,2 53634  53.2195  64.7347 0001271  92.1398 267.9739 15.08849350 31079,6917.852,95.437,540.596,538.838,0.0
53634.0,STARLINK-4592,PAYLOAD,2023-03-19 04:48:34,15.08833775,0.0001263,53.2195,61.4632,99.0371,261.0764,3.2811e-05,2.34e-06,0.0,0 STARLINK-4592,1 53634U 22104AY  23078.20040163  .00000234  00000-0  32811-4 0  9994,2 53634  53.2195  61.4632 0001263  99.0371 261.0764 15.08833775 31187,6917.899,95.438,540.638,538.891,0.0
53634.0,STARLINK-4592,PAYLOAD,2023-03-19 11:10:06,15.08843434,0.00013,53.2196,60.2735,85.8024,274.3117,0.00010907,1.449e-05,0.0,0 STARLINK-4592,1 53634U 22104AY  23078.46535341  .00001449  00000-0  10907-3 0  9999,2 53634  53.2196  60.2735 0001300  85.8024 274.3117 15.08843434 31226,6917.87,95.437,540.634,538.836,0.0
53634.0,STARLINK-4592,PAYLOAD,2023-03-19 15:56:17,15.08825239,0.0001232,53.2201,59.3813,94.7231,265.3901,-7.1225e-05,-1.421e-05,0.0,0 STARLINK-4592,1 53634U 22104AY  23078.66409056 -.00001421  00000-0 -71225-4 0  9997,2 53634  53.2201  59.3813 0001232  94.7231 265.3901 15.08825239 31259,6917.926,95.438,540.643,538.938,0.0
53634.0,STARLINK-4592,PAYLOAD,2023-03-20 04:39:21,15.08844289,0.0001042,53.2188,57.0045,101.8292,258.2818,-6.8169e-05,-1.373e-05,0.0,0 STARLINK-4592,1 53634U 22104AY  23079.19399997 -.00001373  00000-0 -68169-4 0  9997,2 53634  53.2188  57.0045 0001042 101.8292 258.2818 15.08844289 31334,6917.867,95.437,540.453,539.011,0.0
53634.0,STARLINK-4592,PAYLOAD,2023-03-20 06:14:44,15.08846678,0.000114,53.2193,56.7041,103.6092,256.5027,-4.6508e-05,-1.028e-05,0.0,0 STARLINK-4592,1 53634U 22104AY  23079.26023656 -.00001028  00000-0 -46508-4 0  9991,2 53634  53.2193  56.7041 0001140 103.6092 256.5027 15.08846678 32360,6917.86,95.437,540.514,538.936,0.0
53634.0,STARLINK-4592,PAYLOAD,2023-03-20 15:47:03,15.08840905,0.0001238,53.2211,54.9211,88.5689,271.5445,-9.5351e-05,-1.805e-05,0.0,0 STARLINK-4592,1 53634U 22104AY  23079.65768195 -.00001805  00000-0 -95351-4 0  9991,2 53634  53.2211  54.9211 0001238  88.5689 271.5445 15.08840905 32426,6917.878,95.437,540.599,538.886,0.0
53634.0,STARLINK-4592,PAYLOAD,2023-03-21 07:40:54,15.08846234,0.0001284,53.2207,51.9463,94.3374,265.7765,-2.135e-05,-6.28e-06,0.0,0 STARLINK-4592,1 53634U 22104AY  23080.32007693 -.00000628  00000-0 -21350-4 0  9996,2 53634  53.2207  51.9463 0001284  94.3374 265.7765 15.08846234 31503,6917.861,95.437,540.615,538.838,0.0
53634.0,STARLINK-4592,PAYLOAD,2023-03-22 04:20:55,15.08843014,0.0001064,53.2214,48.0822,101.7708,258.3404,-4.7577e-05,-1.045e-05,0.0,0 STARLINK-4592,1 53634U 22104AY  23081.18120108 -.00001045  00000-0 -47577-4 0  9991,2 53634  53.2214  48.0822 0001064 101.7708 258.3404 15.08843014 31632,6917.871,95.437,540.472,539.0,0.0
53634.0,STARLINK-4592,PAYLOAD,2023-03-22 07:31:41,15.08845219,0.0001159,53.2209,47.485,105.9193,254.1926,-2.4567e-05,-6.79e-06,0.0,0 STARLINK-4592,1 53634U 22104AY  23081.31367817 -.00000679  00000-0 -24567-4 0  9992,2 53634  53.2209  47.4850 0001159 105.9193 254.1926 15.08845219 32676,6917.864,95.437,540.531,538.928,0.0
53634.0,STARLINK-4592,PAYLOAD,2023-03-23 04:11:42,15.08845087,9.22e-05,53.2193,43.6232,96.296,263.8137,8.1094e-05,1.003e-05,0.0,0 STARLINK-4592,1 53634U 22104AY  23082.17479517  .00001003  00000-0  81094-4 0  9996,2 53634  53.2193  43.6232 0000922  96.2960 263.8137 15.08845087 32800,6917.865,95.437,540.368,539.092,0.0
53634.0,STARLINK-4592,PAYLOAD,2023-03-24 04:02:28,15.08857122,8.33e-05,53.2191,39.1617,82.8485,277.2602,0.0001026,1.346e-05,0.0,0 STARLINK-4592,1 53634U 22104AY  23083.16839051  .00001346  00000-0  10260-3 0  9995,2 53634  53.2191  39.1617 0000833  82.8485 277.2602 15.08857122 32954,6917.828,95.436,540.269,539.117,0.0
53634.0,STARLINK-4592,PAYLOAD,2023-03-25 03:53:16,15.08849383,0.0001004,53.2195,34.7026,90.1326,269.9781,5.3826e-06,-2.02e-06,0.0,0 STARLINK-4592,1 53634U 22104AY  23084.16199426 -.00000202  00000-0  53826-5 0  9999,2 53634  53.2195  34.7026 0001004  90.1326 269.9781 15.08849383 32080,6917.852,95.437,540.411,539.022,0.0
53634.0,STARLINK-4592,PAYLOAD,2023-03-25 05:28:39,15.08850597,0.0001018,53.2193,34.4051,94.1943,265.9165,1.5343e-05,-4.4e-07,0.0,0 STARLINK-4592,1 53634U 22104AY  23084.22823280 -.00000044  00000-0  15343-4 0  9993,2 53634  53.2193  34.4051 0001018  94.1943 265.9165 15.08850597 33113,6917.848,95.437,540.417,539.009,0.0
